STARLINK-2683
1 18462C 21040AL  21326.16441718 -.00015070  00000-0 -10098-2 0  3266
2 18462  53.0518  33.0030 0001607  59.5309 197.5658 15.06411713    13
